{"type": "FeatureCollection", "features": [ {"type": "Feature", "properties": {"norad_id": 66613, "name": "STARLINK-36037", "group": "last-30-days", "lat": -17.39657539509942, "lon": 60.46530632712914, "alt_km": 380.68277892797323, "timestamp": "2025-12-07T22:37:41.858013+00:00", "meta": {"OBJECT_NAME": "STARLINK-36037", "OBJECT_ID": "2025-270AB", "EPOCH": "2025-12-07T06:00:04.999968", "MEAN_MOTION": 15.65715444, "ECCENTRICITY": 0.00015746, "INCLINATION": 42.999, "RA_OF_ASC_NODE": 224.9537, "ARG_OF_PERICENTER": 259.0196, "MEAN_ANOMALY": 0.9989, "EPHEMERIS_TYPE": 0, "CLASSIFICATION_TYPE": "U", "NORAD_CAT_ID": 66613, "ELEMENT_SET_NO": 999, "REV_AT_EPOCH": 351, "BSTAR": -0.021719919, "MEAN_MOTION_DOT": -0.01988444, "MEAN_MOTION_DDOT": 0}, "tle": {"line1": "1 66613U 25270AB  25341.25005787 -.01988444  00000+0 -21720-1 0  9999", "line2": "2 66613  42.9990 224.9537 0001574 259.0196   0.9989 15.65715444  3514"}}, "geometry": {"type": "Point", "coordinates": [60.46530632712914, -17.39657539509942]}}, {"type": "Feature", "properties": {"norad_id": 66614, "name": "STARLINK-36040", "group": "last-30-days", "lat": -19.83005694239722, "lon": 63.57535347808376, "alt_km": 380.904900068017, "timestamp": "2025-12-07T22:37:41.858023+00:00", "meta": {"OBJECT_NAME": "STARLINK-36040", "OBJECT_ID": "2025-270AC", "EPOCH": "2025-12-07T06:00:04.999968", "MEAN_MOTION": 15.6571905, "ECCENTRICITY": 0.00015811, "INCLINATION": 42.9989, "RA_OF_ASC_NODE": 224.9436, "ARG_OF_PERICENTER": 261.8889, "MEAN_ANOMALY": 1.9628, "EPHEMERIS_TYPE": 0, "CLASSIFICATION_TYPE": "U", "NORAD_CAT_ID": 66614, "ELEMENT_SET_NO": 999, "REV_AT_EPOCH": 336, "BSTAR": -0.021780036, "MEAN_MOTION_DOT": -0.01993542, "MEAN_MOTION_DDOT": 0}, "tle": {"line1": "1 66614U 25270AC  25341.25005787 -.01993542  00000+0 -21780-1 0  9991", "line2": "2 66614  42.9989 224.9436 0001581 261.8889   1.9628 15.65719050  3360"}}, "geometry": {"type": "Point", "coordinates": [63.57535347808376, -19.83005694239722]}}, {"type": "Feature", "properties": {"norad_id": 66615, "name": "STARLINK-35988", "group": "last-30-days", "lat": -18.618171431644736, "lon": 62.00774384319543, "alt_km": 380.81636545400215, "timestamp": "2025-12-07T22:37:41.858033+00:00", "meta": {"OBJECT_NAME": "STARLINK-35988", "OBJECT_ID": "2025-270AD", "EPOCH": "2025-12-07T06:00:04.999968", "MEAN_MOTION": 15.65717278, "ECCENTRICITY": 0.00015997, "INCLINATION": 42.9989, "RA_OF_ASC_NODE": 224.9492, "ARG_OF_PERICENTER": 261.2999, "MEAN_ANOMALY": 0.6356, "EPHEMERIS_TYPE": 0, "CLASSIFICATION_TYPE": "U", "NORAD_CAT_ID": 66615, "ELEMENT_SET_NO": 999, "REV_AT_EPOCH": 336, "BSTAR": -0.021764633, "MEAN_MOTION_DOT": -0.01992192, "MEAN_MOTION_DDOT": 0}, "tle": {"line1": "1 66615U 25270AD  25341.25005787 -.01992192  00000+0 -21765-1 0  9995", "line2": "2 66615  42.9989 224.9492 0001599 261.2999   0.6356 15.65717278  3362"}}, "geometry": {"type": "Point", "coordinates": [62.00774384319543, -18.618171431644736]}}, {"type": "Feature", "properties": {"norad_id": 66616, "name": "STARLINK-35391", "group": "last-30-days", "lat": -21.02875564336631, "lon": 65.16949588330189, "alt_km": 380.9182612598461, "timestamp": "2025-12-07T22:37:41.858044+00:00", "meta": {"OBJECT_NAME": "STARLINK-35391", "OBJECT_ID": "2025-270AE", "EPOCH": "2025-12-07T06:00:04.999968", "MEAN_MOTION": 15.65719894, "ECCENTRICITY": 0.00015534, "INCLINATION": 42.9989, "RA_OF_ASC_NODE": 224.9394, "ARG_OF_PERICENTER": 259.767, "MEAN_ANOMALY": 6, "EPHEMERIS_TYPE": 0, "CLASSIFICATION_TYPE": "U", "NORAD_CAT_ID": 66616, "ELEMENT_SET_NO": 999, "REV_AT_EPOCH": 362, "BSTAR": -0.021774319, "MEAN_MOTION_DOT": -0.01993121, "MEAN_MOTION_DDOT": 0}, "tle": {"line1": "1 66616U 25270AE  25341.25005787 -.01993121  00000+0 -21774-1 0  9999", "line2": "2 66616  42.9989 224.9394 0001553 259.7670   6.0000 15.65719894  3623"}}, "geometry": {"type": "Point", "coordinates": [65.16949588330189, -21.02875564336631]}}, {"type": "Feature", "properties": {"norad_id": 66617, "name": "STARLINK-35940", "group": "last-30-days", "lat": 39.09271882240909, "lon": -6.979096513980969, "alt_km": 351.1557685312091, "timestamp": "2025-12-07T22:37:41.858060+00:00", "meta": {"OBJECT_NAME": "STARLINK-35940", "OBJECT_ID": "2025-271A", "EPOCH": "2025-12-07T06:00:04.999968", "MEAN_MOTION": 15.73612899, "ECCENTRICITY": 0.00013199, "INCLINATION": 53.1583, "RA_OF_ASC_NODE": 213.9786, "ARG_OF_PERICENTER": 76.9813, "MEAN_ANOMALY": 87.7215, "EPHEMERIS_TYPE": 0, "CLASSIFICATION_TYPE": "U", "NORAD_CAT_ID": 66617, "ELEMENT_SET_NO": 999, "REV_AT_EPOCH": 336, "BSTAR": -0.015654776, "MEAN_MOTION_DOT": -0.01978871, "MEAN_MOTION_DDOT": 0}, "tle": {"line1": "1 66617U 25271A   25341.25005787 -.01978871  00000+0 -15655-1 0  9997", "line2": "2 66617  53.1583 213.9786 0001319  76.9813  87.7215 15.73612899  3360"}}, "geometry": {"type": "Point", "coordinates": [-6.979096513980969, 39.09271882240909]}}, {"type": "Feature", "properties": {"norad_id": 66618, "name": "STARLINK-35970", "group": "last-30-days", "lat": -1.0903871574561566, "lon": 31.255080707616727, "alt_km": 358.0744542252569, "timestamp": "2025-12-07T22:37:41.858075+00:00", "meta": {"OBJECT_NAME": "STARLINK-35970", "OBJECT_ID": "2025-271B", "EPOCH": "2025-12-07T06:00:04.999968", "MEAN_MOTION": 15.73611952, "ECCENTRICITY": 8.671e-05, "INCLINATION": 53.1582, "RA_OF_ASC_NODE": 213.8657, "ARG_OF_PERICENTER": 76.9989, "MEAN_ANOMALY": 141.0202, "EPHEMERIS_TYPE": 0, "CLASSIFICATION_TYPE": "U", "NORAD_CAT_ID": 66618, "ELEMENT_SET_NO": 999, "REV_AT_EPOCH": 336, "BSTAR": -0.015580394, "MEAN_MOTION_DOT": -0.01970129, "MEAN_MOTION_DDOT": 0}, "tle": {"line1": "1 66618U 25271B   25341.25005787 -.01970129  00000+0 -15580-1 0  9993", "line2": "2 66618  53.1582 213.8657 0000867  76.9989 141.0202 15.73611952  3366"}}, "geometry": {"type": "Point", "coordinates": [31.255080707616727, -1.0903871574561566]}}, {"type": "Feature", "properties": {"norad_id": 66619, "name": "STARLINK-35951", "group": "last-30-days", "lat": 33.996076596367004, "lon": 0.1582067811070809, "alt_km": 352.0825833061099, "timestamp": "2025-12-07T22:37:41.858085+00:00", "meta": {"OBJECT_NAME": "STARLINK-35951", "OBJECT_ID": "2025-271C", "EPOCH": "2025-12-07T06:00:04.999968", "MEAN_MOTION": 15.73606165, "ECCENTRICITY": 8.549e-05, "INCLINATION": 53.158, "RA_OF_ASC_NODE": 213.9618, "ARG_OF_PERICENTER": 96.8351, "MEAN_ANOMALY": 75.5322, "EPHEMERIS_TYPE": 0, "CLASSIFICATION_TYPE": "U", "NORAD_CAT_ID": 66619, "ELEMENT_SET_NO": 999, "REV_AT_EPOCH": 336, "BSTAR": -0.015548547, "MEAN_MOTION_DOT": -0.01926192, "MEAN_MOTION_DDOT": 0}, "tle": {"line1": "1 66619U 25271C   25341.25005787 -.01926192  00000+0 -15549-1 0  9990", "line2": "2 66619  53.1580 213.9618 0000854  96.8351  75.5322 15.73606165  3367"}}, "geometry": {"type": "Point", "coordinates": [0.1582067811070809, 33.996076596367004]}}, {"type": "Feature", "properties": {"norad_id": 66620, "name": "STARLINK-35936", "group": "last-30-days", "lat": 37.858005895484695, "lon": -5.101807282936424, "alt_km": 351.5062687314812, "timestamp": "2025-12-07T22:37:41.858095+00:00", "meta": {"OBJECT_NAME": "STARLINK-35936", "OBJECT_ID": "2025-271D", "EPOCH": "2025-12-07T06:00:04.999968", "MEAN_MOTION": 15.73601921, "ECCENTRICITY": 0.00011924, "INCLINATION": 53.1583, "RA_OF_ASC_NODE": 213.9744, "ARG_OF_PERICENTER": 63.5245, "MEAN_ANOMALY": 103.1025, "EPHEMERIS_TYPE": 0, "CLASSIFICATION_TYPE": "U", "NORAD_CAT_ID": 66620, "ELEMENT_SET_NO": 999, "REV_AT_EPOCH": 336, "BSTAR": -0.015565568, "MEAN_MOTION_DOT": -0.01928001, "MEAN_MOTION_DDOT": 0}, "tle": {"line1": "1 66620U 25271D   25341.25005787 -.01928001  00000+0 -15566-1 0  9992", "line2": "2 66620  53.1583 213.9744 0001192  63.5245 103.1025 15.73601921  3364"}}, "geometry": {"type": "Point", "coordinates": [-5.101807282936424, 37.858005895484695]}}, {"type": "Feature", "properties": {"norad_id": 66621, "name": "STARLINK-35847", "group": "last-30-days", "lat": -3.9187104192533084, "lon": 33.37417528628408, "alt_km": 358.5279100561338, "timestamp": "2025-12-07T22:37:41.858106+00:00", "meta": {"OBJECT_NAME": "STARLINK-35847", "OBJECT_ID": "2025-271E", "EPOCH": "2025-12-07T06:00:04.999968", "MEAN_MOTION": 15.73611221, "ECCENTRICITY": 9.712e-05, "INCLINATION": 53.158, "RA_OF_ASC_NODE": 213.8584, "ARG_OF_PERICENTER": 75.092, "MEAN_ANOMALY": 146.4679, "EPHEMERIS_TYPE": 0, "CLASSIFICATION_TYPE": "U", "NORAD_CAT_ID": 66621, "ELEMENT_SET_NO": 999, "REV_AT_EPOCH": 336, "BSTAR": -0.015593939, "MEAN_MOTION_DOT": -0.01971668, "MEAN_MOTION_DDOT": 0}, "tle": {"line1": "1 66621U 25271E   25341.25005787 -.01971668  00000+0 -15594-1 0  9991", "line2": "2 66621  53.1580 213.8584 0000971  75.0920 146.4679 15.73611221  3364"}}, "geometry": {"type": "Point", "coordinates": [33.37417528628408, -3.9187104192533084]}}, {"type": "Feature", "properties": {"norad_id": 66622, "name": "STARLINK-35950", "group": "last-30-days", "lat": 32.654191829094785, "lon": 1.811404195692383, "alt_km": 352.32594018036434, "timestamp": "2025-12-07T22:37:41.858116+00:00", "meta": {"OBJECT_NAME": "STARLINK-35950", "OBJECT_ID": "2025-271F", "EPOCH": "2025-12-07T06:00:04.999968", "MEAN_MOTION": 15.73602712, "ECCENTRICITY": 0.00012886, "INCLINATION": 53.1582, "RA_OF_ASC_NODE": 213.958, "ARG_OF_PERICENTER": 72.1092, "MEAN_ANOMALY": 102.1806, "EPHEMERIS_TYPE": 0, "CLASSIFICATION_TYPE": "U", "NORAD_CAT_ID": 66622, "ELEMENT_SET_NO": 999, "REV_AT_EPOCH": 336, "BSTAR": -0.015533852, "MEAN_MOTION_DOT": -0.01924758, "MEAN_MOTION_DDOT": 0}, "tle": {"line1": "1 66622U 25271F   25341.25005787 -.01924758  00000+0 -15534-1 0  9994", "line2": "2 66622  53.1582 213.9580 0001288  72.1092 102.1806 15.73602712  3360"}}, "geometry": {"type": "Point", "coordinates": [1.811404195692383, 32.654191829094785]}}]}